<?xml version="1.0" encoding="UTF-8"?>
<gpx creator="StravaGPX" version="1.1" xmlns="http://www.topografix.com/GPX/1/1" xmlns:xsi="http://www.w3.org/2001/XMLSchema-instance" xsi:schemaLocation="http://www.topografix.com/GPX/1/1 http://www.topografix.com/GPX/1/1/gpx.xsd">
 <metadata>
  <name>T24 BORMES LES MIMOSAS - PARCOURS VÉLO</name>
  <author>
   <name>T24  XTREM TRIATHLON</name>
   <link href="https://www.strava.com/athletes/118372609"/>
  </author>
  <copyright author="OpenStreetMap contributors">
   <year>2020</year>
   <license>https://www.openstreetmap.org/copyright</license>
  </copyright>
  <link href="https://www.strava.com/routes/3276705687367634604"/>
 </metadata>
 <trk>
  <name>T24 BORMES LES MIMOSAS - PARCOURS VÉLO</name>
  <link href="https://www.strava.com/routes/3276705687367634604"/>
  <type>cycling</type>
  <trkseg>
   <trkpt lat="43.12370000000001" lon="6.361090000000001">
    <ele>5.4</ele>
   </trkpt>
   <trkpt lat="43.12368" lon="6.360970000000001">
    <ele>5.4</ele>
   </trkpt>
   <trkpt lat="43.123850000000004" lon="6.360110000000001">
    <ele>6.760000000000001</ele>
   </trkpt>
   <trkpt lat="43.123900000000006" lon="6.3600200000000005">
    <ele>6.760000000000001</ele>
   </trkpt>
   <trkpt lat="43.124050000000004" lon="6.35981">
    <ele>6.91</ele>
   </trkpt>
   <trkpt lat="43.12416" lon="6.359540000000001">
    <ele>7.2700000000000005</ele>
   </trkpt>
   <trkpt lat="43.12424" lon="6.358790000000001">
    <ele>8.09</ele>
   </trkpt>
   <trkpt lat="43.12429" lon="6.3581">
    <ele>9.18</ele>
   </trkpt>
   <trkpt lat="43.12436" lon="6.357640000000001">
    <ele>9.73</ele>
   </trkpt>
   <trkpt lat="43.124430000000004" lon="6.3574">
    <ele>10.450000000000001</ele>
   </trkpt>
   <trkpt lat="43.124570000000006" lon="6.35712">
    <ele>10.560000000000002</ele>
   </trkpt>
   <trkpt lat="43.12478" lon="6.356870000000001">
    <ele>11.580000000000002</ele>
   </trkpt>
   <trkpt lat="43.12501" lon="6.356630000000001">
    <ele>12.46</ele>
   </trkpt>
   <trkpt lat="43.12538000000001" lon="6.35641">
    <ele>14.600000000000001</ele>
   </trkpt>
   <trkpt lat="43.125690000000006" lon="6.35632">
    <ele>16.380000000000003</ele>
   </trkpt>
   <trkpt lat="43.126189999899786" lon="6.356369999580203">
    <ele>18.85</ele>
   </trkpt>
   <trkpt lat="43.12669" lon="6.356420000000001">
    <ele>22.38</ele>
   </trkpt>
   <trkpt lat="43.126870000000004" lon="6.356420000000001">
    <ele>22.38</ele>
   </trkpt>
   <trkpt lat="43.127140000000004" lon="6.3563600000000005">
    <ele>24.700000000000003</ele>
   </trkpt>
   <trkpt lat="43.12722" lon="6.356240000000001">
    <ele>25.210000000000004</ele>
   </trkpt>
   <trkpt lat="43.12729" lon="6.356070000000001">
    <ele>25.92</ele>
   </trkpt>
   <trkpt lat="43.127340000000004" lon="6.35583">
    <ele>26.240000000000002</ele>
   </trkpt>
   <trkpt lat="43.12738" lon="6.35529">
    <ele>27.650000000000002</ele>
   </trkpt>
   <trkpt lat="43.127430000000004" lon="6.35512">
    <ele>27.87</ele>
   </trkpt>
   <trkpt lat="43.127520000000004" lon="6.354990000000001">
    <ele>28.35</ele>
   </trkpt>
   <trkpt lat="43.12782000000001" lon="6.354830000000001">
    <ele>28.950000000000003</ele>
   </trkpt>
   <trkpt lat="43.128370000000004" lon="6.354640000000001">
    <ele>30.29</ele>
   </trkpt>
   <trkpt lat="43.128640000000004" lon="6.354500000000001">
    <ele>30.240000000000002</ele>
   </trkpt>
   <trkpt lat="43.128780000000006" lon="6.354400000000001">
    <ele>29.75</ele>
   </trkpt>
   <trkpt lat="43.128980000000006" lon="6.35418">
    <ele>28.600000000000005</ele>
   </trkpt>
   <trkpt lat="43.12914000000001" lon="6.3539200000000005">
    <ele>28.12</ele>
   </trkpt>
   <trkpt lat="43.12952000000001" lon="6.3529100000000005">
    <ele>23.57</ele>
   </trkpt>
   <trkpt lat="43.12993" lon="6.35245">
    <ele>18.490000000000002</ele>
   </trkpt>
   <trkpt lat="43.13022" lon="6.3520900000000005">
    <ele>16.26</ele>
   </trkpt>
   <trkpt lat="43.13053" lon="6.351660000000001">
    <ele>13.82</ele>
   </trkpt>
   <trkpt lat="43.13116" lon="6.35097">
    <ele>11.260000000000002</ele>
   </trkpt>
   <trkpt lat="43.13138" lon="6.35059">
    <ele>10.98</ele>
   </trkpt>
   <trkpt lat="43.13143" lon="6.35043">
    <ele>11.160000000000002</ele>
   </trkpt>
   <trkpt lat="43.13147" lon="6.350200000000001">
    <ele>11.160000000000002</ele>
   </trkpt>
   <trkpt lat="43.131530000000005" lon="6.35001">
    <ele>11.3</ele>
   </trkpt>
   <trkpt lat="43.13211500071976" lon="6.350419996069722">
    <ele>9.91</ele>
   </trkpt>
   <trkpt lat="43.13270000000001" lon="6.35083">
    <ele>9.600000000000001</ele>
   </trkpt>
   <trkpt lat="43.132940000000005" lon="6.35095">
    <ele>9.63</ele>
   </trkpt>
   <trkpt lat="43.13324" lon="6.3510100000000005">
    <ele>9.760000000000002</ele>
   </trkpt>
   <trkpt lat="43.1338" lon="6.3510800000000005">
    <ele>9.770000000000001</ele>
   </trkpt>
   <trkpt lat="43.13468" lon="6.35118">
    <ele>10.110000000000001</ele>
   </trkpt>
   <trkpt lat="43.135180000000005" lon="6.3512900000000005">
    <ele>10.690000000000001</ele>
   </trkpt>
   <trkpt lat="43.13524" lon="6.35008">
    <ele>10.59</ele>
   </trkpt>
   <trkpt lat="43.135290000000005" lon="6.349850000000001">
    <ele>10.59</ele>
   </trkpt>
   <trkpt lat="43.13541" lon="6.34973">
    <ele>10.610000000000001</ele>
   </trkpt>
   <trkpt lat="43.135760000000005" lon="6.349590000000001">
    <ele>10.610000000000001</ele>
   </trkpt>
   <trkpt lat="43.13582" lon="6.34947">
    <ele>10.64</ele>
   </trkpt>
   <trkpt lat="43.135870000000004" lon="6.34919">
    <ele>10.83</ele>
   </trkpt>
   <trkpt lat="43.13602" lon="6.34893">
    <ele>11.19</ele>
   </trkpt>
   <trkpt lat="43.13635" lon="6.348210000000001">
    <ele>11.61</ele>
   </trkpt>
   <trkpt lat="43.13644" lon="6.3478900000000005">
    <ele>11.760000000000002</ele>
   </trkpt>
   <trkpt lat="43.13649" lon="6.347550000000001">
    <ele>11.7</ele>
   </trkpt>
   <trkpt lat="43.13658" lon="6.3464100000000006">
    <ele>12.39</ele>
   </trkpt>
   <trkpt lat="43.136610000000005" lon="6.3463">
    <ele>12.39</ele>
   </trkpt>
   <trkpt lat="43.1366" lon="6.346240000000001">
    <ele>12.39</ele>
   </trkpt>
   <trkpt lat="43.13656" lon="6.3462000000000005">
    <ele>12.3</ele>
   </trkpt>
   <trkpt lat="43.136520000000004" lon="6.34618">
    <ele>12.3</ele>
   </trkpt>
   <trkpt lat="43.13646000000001" lon="6.346190000000001">
    <ele>12.22</ele>
   </trkpt>
   <trkpt lat="43.136120000000005" lon="6.34576">
    <ele>12.15</ele>
   </trkpt>
   <trkpt lat="43.136030000000005" lon="6.345610000000001">
    <ele>12.15</ele>
   </trkpt>
   <trkpt lat="43.13599000000001" lon="6.34546">
    <ele>12.15</ele>
   </trkpt>
   <trkpt lat="43.13597" lon="6.345230000000001">
    <ele>12.25</ele>
   </trkpt>
   <trkpt lat="43.13598000282113" lon="6.344425000166641">
    <ele>12.610000000000001</ele>
   </trkpt>
   <trkpt lat="43.13599000000001" lon="6.3436200000000005">
    <ele>12.74</ele>
   </trkpt>
   <trkpt lat="43.13597" lon="6.34339">
    <ele>12.860000000000001</ele>
   </trkpt>
   <trkpt lat="43.135920000000006" lon="6.34323">
    <ele>12.92</ele>
   </trkpt>
   <trkpt lat="43.135690000000004" lon="6.34266">
    <ele>13.21</ele>
   </trkpt>
   <trkpt lat="43.13570000000001" lon="6.3417900000000005">
    <ele>13.81</ele>
   </trkpt>
   <trkpt lat="43.13564" lon="6.340820000000001">
    <ele>14.67</ele>
   </trkpt>
   <trkpt lat="43.13555" lon="6.33992">
    <ele>14.980000000000002</ele>
   </trkpt>
   <trkpt lat="43.13537" lon="6.33889">
    <ele>15.240000000000002</ele>
   </trkpt>
   <trkpt lat="43.13487000000001" lon="6.33882">
    <ele>14.870000000000001</ele>
   </trkpt>
   <trkpt lat="43.13458000000001" lon="6.33875">
    <ele>14.790000000000001</ele>
   </trkpt>
   <trkpt lat="43.133790000000005" lon="6.33823">
    <ele>15.370000000000001</ele>
   </trkpt>
   <trkpt lat="43.133075001125555" lon="6.337709993882883">
    <ele>15.73</ele>
   </trkpt>
   <trkpt lat="43.132360000000006" lon="6.3371900000000005">
    <ele>16.86</ele>
   </trkpt>
   <trkpt lat="43.131840000000004" lon="6.33675">
    <ele>20.17</ele>
   </trkpt>
   <trkpt lat="43.13163" lon="6.336650000000001">
    <ele>21.86</ele>
   </trkpt>
   <trkpt lat="43.131190000000004" lon="6.33661">
    <ele>25.310000000000002</ele>
   </trkpt>
   <trkpt lat="43.130860000000006" lon="6.336570000000001">
    <ele>26.42</ele>
   </trkpt>
   <trkpt lat="43.13073000000001" lon="6.3365100000000005">
    <ele>26.42</ele>
   </trkpt>
   <trkpt lat="43.130140000000004" lon="6.335940000000001">
    <ele>28.05</ele>
   </trkpt>
   <trkpt lat="43.129760000000005" lon="6.335660000000001">
    <ele>28.360000000000003</ele>
   </trkpt>
   <trkpt lat="43.12895" lon="6.335260000000001">
    <ele>30.580000000000002</ele>
   </trkpt>
   <trkpt lat="43.12845" lon="6.33506">
    <ele>31.48</ele>
   </trkpt>
   <trkpt lat="43.128310000000006" lon="6.334980000000001">
    <ele>31.93</ele>
   </trkpt>
   <trkpt lat="43.12812" lon="6.33471">
    <ele>32.199999999999996</ele>
   </trkpt>
   <trkpt lat="43.127770000000005" lon="6.33403">
    <ele>32.5</ele>
   </trkpt>
   <trkpt lat="43.127370000000006" lon="6.33363">
    <ele>31.360000000000007</ele>
   </trkpt>
   <trkpt lat="43.127100000000006" lon="6.333450000000001">
    <ele>31.12</ele>
   </trkpt>
   <trkpt lat="43.126430000000006" lon="6.333060000000001">
    <ele>32.870000000000005</ele>
   </trkpt>
   <trkpt lat="43.12592000035954" lon="6.332734997226483">
    <ele>34.61</ele>
   </trkpt>
   <trkpt lat="43.12541" lon="6.33241">
    <ele>37.470000000000006</ele>
   </trkpt>
   <trkpt lat="43.124700000000004" lon="6.332000000000001">
    <ele>40.300000000000004</ele>
   </trkpt>
   <trkpt lat="43.124100000000006" lon="6.331770000000001">
    <ele>41.99000000000001</ele>
   </trkpt>
   <trkpt lat="43.123870000000004" lon="6.3316300000000005">
    <ele>42.28</ele>
   </trkpt>
   <trkpt lat="43.123490000000004" lon="6.3313500000000005">
    <ele>43.82000000000001</ele>
   </trkpt>
   <trkpt lat="43.123000000000005" lon="6.330900000000001">
    <ele>45.540000000000006</ele>
   </trkpt>
   <trkpt lat="43.12229000000001" lon="6.3302000000000005">
    <ele>50.36</ele>
   </trkpt>
   <trkpt lat="43.12218" lon="6.330050000000001">
    <ele>51.81</ele>
   </trkpt>
   <trkpt lat="43.12205" lon="6.329400000000001">
    <ele>56.57</ele>
   </trkpt>
   <trkpt lat="43.12189" lon="6.32894">
    <ele>60.72</ele>
   </trkpt>
   <trkpt lat="43.12182000000001" lon="6.328710000000001">
    <ele>60.72</ele>
   </trkpt>
   <trkpt lat="43.12181" lon="6.32849">
    <ele>62.02</ele>
   </trkpt>
   <trkpt lat="43.12187" lon="6.328360000000001">
    <ele>62.02</ele>
   </trkpt>
   <trkpt lat="43.122130000000006" lon="6.32795">
    <ele>65.77000000000001</ele>
   </trkpt>
   <trkpt lat="43.12216" lon="6.327800000000001">
    <ele>65.77000000000001</ele>
   </trkpt>
   <trkpt lat="43.122150000000005" lon="6.32767">
    <ele>66.35000000000001</ele>
   </trkpt>
   <trkpt lat="43.12209" lon="6.32753">
    <ele>67.46000000000001</ele>
   </trkpt>
   <trkpt lat="43.121700000000004" lon="6.32685">
    <ele>71.08</ele>
   </trkpt>
   <trkpt lat="43.121550000000006" lon="6.326650000000001">
    <ele>71.04</ele>
   </trkpt>
   <trkpt lat="43.12105500156469" lon="6.326039994996485">
    <ele>66.46000000000001</ele>
   </trkpt>
   <trkpt lat="43.120560000000005" lon="6.325430000000001">
    <ele>61.32000000000001</ele>
   </trkpt>
   <trkpt lat="43.120470000000005" lon="6.32526">
    <ele>59.9</ele>
   </trkpt>
   <trkpt lat="43.12032000000001" lon="6.324820000000001">
    <ele>58.190000000000005</ele>
   </trkpt>
   <trkpt lat="43.120200000000004" lon="6.324630000000001">
    <ele>55.24</ele>
   </trkpt>
   <trkpt lat="43.11981" lon="6.324190000000001">
    <ele>51.9</ele>
   </trkpt>
   <trkpt lat="43.119440000000004" lon="6.323840000000001">
    <ele>49.730000000000004</ele>
   </trkpt>
   <trkpt lat="43.11889" lon="6.3234">
    <ele>44.620000000000005</ele>
   </trkpt>
   <trkpt lat="43.118500000000004" lon="6.323130000000001">
    <ele>42.7</ele>
   </trkpt>
   <trkpt lat="43.11825" lon="6.32286">
    <ele>40.85</ele>
   </trkpt>
   <trkpt lat="43.11797000000001" lon="6.322620000000001">
    <ele>40.28</ele>
   </trkpt>
   <trkpt lat="43.11757" lon="6.322380000000001">
    <ele>38.830000000000005</ele>
   </trkpt>
   <trkpt lat="43.11719" lon="6.32199">
    <ele>35.300000000000004</ele>
   </trkpt>
   <trkpt lat="43.117020000000004" lon="6.32174">
    <ele>33.74</ele>
   </trkpt>
   <trkpt lat="43.11683" lon="6.321580000000001">
    <ele>31.900000000000006</ele>
   </trkpt>
   <trkpt lat="43.116530000000004" lon="6.321390000000001">
    <ele>30.720000000000002</ele>
   </trkpt>
   <trkpt lat="43.11616" lon="6.32106">
    <ele>27.880000000000003</ele>
   </trkpt>
   <trkpt lat="43.115770000000005" lon="6.32068">
    <ele>26.060000000000002</ele>
   </trkpt>
   <trkpt lat="43.11567" lon="6.32042">
    <ele>25.310000000000002</ele>
   </trkpt>
   <trkpt lat="43.115200000373825" lon="6.32005999708921">
    <ele>24.37</ele>
   </trkpt>
   <trkpt lat="43.11473" lon="6.3197">
    <ele>23.73</ele>
   </trkpt>
   <trkpt lat="43.114540000000005" lon="6.319470000000001">
    <ele>23.4</ele>
   </trkpt>
   <trkpt lat="43.11431" lon="6.319100000000001">
    <ele>22.660000000000004</ele>
   </trkpt>
   <trkpt lat="43.114030002861675" lon="6.31828999630871">
    <ele>20.610000000000003</ele>
   </trkpt>
   <trkpt lat="43.11375" lon="6.317480000000001">
    <ele>18.680000000000003</ele>
   </trkpt>
   <trkpt lat="43.113510000000005" lon="6.317080000000001">
    <ele>17.550000000000004</ele>
   </trkpt>
   <trkpt lat="43.113310000000006" lon="6.317030000000001">
    <ele>16.43</ele>
   </trkpt>
   <trkpt lat="43.11283" lon="6.317080000000001">
    <ele>15.080000000000002</ele>
   </trkpt>
   <trkpt lat="43.112500000000004" lon="6.31709">
    <ele>13.83</ele>
   </trkpt>
   <trkpt lat="43.11229" lon="6.317030000000001">
    <ele>13.070000000000002</ele>
   </trkpt>
   <trkpt lat="43.112140000000004" lon="6.316940000000001">
    <ele>12.820000000000002</ele>
   </trkpt>
   <trkpt lat="43.11204" lon="6.31674">
    <ele>12.72</ele>
   </trkpt>
   <trkpt lat="43.11197000000001" lon="6.31643">
    <ele>12.440000000000001</ele>
   </trkpt>
   <trkpt lat="43.11197000000001" lon="6.316440000000001">
    <ele>12.440000000000001</ele>
   </trkpt>
   <trkpt lat="43.112" lon="6.316350000000001">
    <ele>12.270000000000001</ele>
   </trkpt>
   <trkpt lat="43.112405009261636" lon="6.315507516745706">
    <ele>12.48</ele>
   </trkpt>
   <trkpt lat="43.112810012342635" lon="6.3146650223408445">
    <ele>12.180000000000001</ele>
   </trkpt>
   <trkpt lat="43.11321500924284" lon="6.313822516785278">
    <ele>10.100000000000001</ele>
   </trkpt>
   <trkpt lat="43.113620000000004" lon="6.3129800000000005">
    <ele>10.16</ele>
   </trkpt>
   <trkpt lat="43.11401500270254" lon="6.312190005128482">
    <ele>15.21</ele>
   </trkpt>
   <trkpt lat="43.11441000000001" lon="6.311400000000001">
    <ele>22.12</ele>
   </trkpt>
   <trkpt lat="43.114850000000004" lon="6.31097">
    <ele>25.59</ele>
   </trkpt>
   <trkpt lat="43.115080000000006" lon="6.310810000000001">
    <ele>27.6</ele>
   </trkpt>
   <trkpt lat="43.11524" lon="6.31064">
    <ele>29.84</ele>
   </trkpt>
   <trkpt lat="43.11534" lon="6.310320000000001">
    <ele>30.7</ele>
   </trkpt>
   <trkpt lat="43.11534" lon="6.310180000000001">
    <ele>30.69</ele>
   </trkpt>
   <trkpt lat="43.11524" lon="6.3098">
    <ele>28.110000000000003</ele>
   </trkpt>
   <trkpt lat="43.11506000000001" lon="6.309520000000001">
    <ele>27.020000000000003</ele>
   </trkpt>
   <trkpt lat="43.114850000000004" lon="6.309360000000001">
    <ele>25.880000000000003</ele>
   </trkpt>
   <trkpt lat="43.114720000000005" lon="6.309220000000001">
    <ele>25.51</ele>
   </trkpt>
   <trkpt lat="43.114760000000004" lon="6.309050000000001">
    <ele>24.900000000000002</ele>
   </trkpt>
   <trkpt lat="43.115125048452946" lon="6.307938059694913">
    <ele>24.55</ele>
   </trkpt>
   <trkpt lat="43.115490086139374" lon="6.306826106123804">
    <ele>24.53</ele>
   </trkpt>
   <trkpt lat="43.11585511305903" lon="6.305714139286738">
    <ele>23.66</ele>
   </trkpt>
   <trkpt lat="43.11622012921165" lon="6.304602159183776">
    <ele>21.62</ele>
   </trkpt>
   <trkpt lat="43.11658513459697" lon="6.303490165814986">
    <ele>20.42</ele>
   </trkpt>
   <trkpt lat="43.1169501292147" lon="6.302378159180428">
    <ele>20.720000000000002</ele>
   </trkpt>
   <trkpt lat="43.11731511306461" lon="6.301266139280167">
    <ele>22.67</ele>
   </trkpt>
   <trkpt lat="43.11768008614643" lon="6.300154106114268">
    <ele>19.990000000000002</ele>
   </trkpt>
   <trkpt lat="43.11804504845986" lon="6.299042059682792">
    <ele>16.880000000000003</ele>
   </trkpt>
   <trkpt lat="43.118410000000004" lon="6.297930000000001">
    <ele>16.400000000000002</ele>
   </trkpt>
   <trkpt lat="43.118480000000005" lon="6.297750000000001">
    <ele>16.400000000000002</ele>
   </trkpt>
   <trkpt lat="43.11853000000001" lon="6.29767">
    <ele>16.400000000000002</ele>
   </trkpt>
   <trkpt lat="43.11865" lon="6.29757">
    <ele>16.26</ele>
   </trkpt>
   <trkpt lat="43.119265000403836" lon="6.29728000289711">
    <ele>16.060000000000002</ele>
   </trkpt>
   <trkpt lat="43.11988" lon="6.29699">
    <ele>16.09</ele>
   </trkpt>
   <trkpt lat="43.12006" lon="6.29689">
    <ele>16.3</ele>
   </trkpt>
   <trkpt lat="43.12015" lon="6.296760000000001">
    <ele>16.28</ele>
   </trkpt>
   <trkpt lat="43.120450000000005" lon="6.296130000000001">
    <ele>15.47</ele>
   </trkpt>
   <trkpt lat="43.12073" lon="6.295400000000001">
    <ele>13.760000000000002</ele>
   </trkpt>
   <trkpt lat="43.120990000000006" lon="6.29494">
    <ele>12.990000000000002</ele>
   </trkpt>
   <trkpt lat="43.12140000103002" lon="6.2944700030714085">
    <ele>13.32</ele>
   </trkpt>
   <trkpt lat="43.12181" lon="6.2940000000000005">
    <ele>14.49</ele>
   </trkpt>
   <trkpt lat="43.122550000000004" lon="6.29337">
    <ele>17.57</ele>
   </trkpt>
   <trkpt lat="43.12267000000001" lon="6.293190000000001">
    <ele>19.020000000000003</ele>
   </trkpt>
   <trkpt lat="43.12277" lon="6.292980000000001">
    <ele>19.89</ele>
   </trkpt>
   <trkpt lat="43.122800000000005" lon="6.2928500000000005">
    <ele>19.89</ele>
   </trkpt>
   <trkpt lat="43.12281500177848" lon="6.292210000366173">
    <ele>21.560000000000002</ele>
   </trkpt>
   <trkpt lat="43.12283" lon="6.29157">
    <ele>24.21</ele>
   </trkpt>
   <trkpt lat="43.12286" lon="6.291220000000001">
    <ele>24.35</ele>
   </trkpt>
   <trkpt lat="43.12306" lon="6.29063">
    <ele>24.16</ele>
   </trkpt>
   <trkpt lat="43.12328" lon="6.290100000000001">
    <ele>23.85</ele>
   </trkpt>
   <trkpt lat="43.12386" lon="6.289350000000001">
    <ele>24.05</ele>
   </trkpt>
   <trkpt lat="43.12418" lon="6.2889100000000004">
    <ele>23.41</ele>
   </trkpt>
   <trkpt lat="43.124300000000005" lon="6.28866">
    <ele>23.21</ele>
   </trkpt>
   <trkpt lat="43.12438" lon="6.288410000000001">
    <ele>22.35</ele>
   </trkpt>
   <trkpt lat="43.12446334096827" lon="6.287473335940673">
    <ele>21.400000000000002</ele>
   </trkpt>
   <trkpt lat="43.12454667429668" lon="6.286536669329364">
    <ele>19.05</ele>
   </trkpt>
   <trkpt lat="43.12463" lon="6.2856000000000005">
    <ele>17.25</ele>
   </trkpt>
   <trkpt lat="43.1248050048312" lon="6.284550002818049">
    <ele>16.310000000000002</ele>
   </trkpt>
   <trkpt lat="43.12498" lon="6.2835">
    <ele>16.48</ele>
   </trkpt>
   <trkpt lat="43.125130000000006" lon="6.282540000000001">
    <ele>16.84</ele>
   </trkpt>
   <trkpt lat="43.125310000000006" lon="6.28176">
    <ele>16.71</ele>
   </trkpt>
   <trkpt lat="43.1253" lon="6.2812">
    <ele>17.060000000000002</ele>
   </trkpt>
   <trkpt lat="43.12532" lon="6.2808600000000006">
    <ele>17.45</ele>
   </trkpt>
   <trkpt lat="43.12539" lon="6.2805800000000005">
    <ele>17.86</ele>
   </trkpt>
   <trkpt lat="43.12566" lon="6.2798300000000005">
    <ele>17.51</ele>
   </trkpt>
   <trkpt lat="43.12614000000001" lon="6.27892">
    <ele>14.41</ele>
   </trkpt>
   <trkpt lat="43.126580000000004" lon="6.277870000000001">
    <ele>12.58</ele>
   </trkpt>
   <trkpt lat="43.126960004483365" lon="6.276850006461409">
    <ele>11.670000000000002</ele>
   </trkpt>
   <trkpt lat="43.127340000000004" lon="6.275830000000001">
    <ele>10.3</ele>
   </trkpt>
   <trkpt lat="43.12695500448607" lon="6.276850006535948">
    <ele>12.650000000000002</ele>
   </trkpt>
   <trkpt lat="43.12657" lon="6.277870000000001">
    <ele>12.650000000000002</ele>
   </trkpt>
   <trkpt lat="43.12614000000001" lon="6.27892">
    <ele>14.41</ele>
   </trkpt>
   <trkpt lat="43.12566" lon="6.2798300000000005">
    <ele>17.51</ele>
   </trkpt>
   <trkpt lat="43.12539" lon="6.2805800000000005">
    <ele>17.6</ele>
   </trkpt>
   <trkpt lat="43.12532" lon="6.2808600000000006">
    <ele>17.28</ele>
   </trkpt>
   <trkpt lat="43.1253" lon="6.2812">
    <ele>17.060000000000002</ele>
   </trkpt>
   <trkpt lat="43.125310000000006" lon="6.28176">
    <ele>16.71</ele>
   </trkpt>
   <trkpt lat="43.125130000000006" lon="6.282540000000001">
    <ele>16.84</ele>
   </trkpt>
   <trkpt lat="43.12498" lon="6.2835">
    <ele>16.48</ele>
   </trkpt>
   <trkpt lat="43.124805004769314" lon="6.284550003189357">
    <ele>16.310000000000002</ele>
   </trkpt>
   <trkpt lat="43.12463" lon="6.2856000000000005">
    <ele>17.45</ele>
   </trkpt>
   <trkpt lat="43.12454667431149" lon="6.28653666916307">
    <ele>19.05</ele>
   </trkpt>
   <trkpt lat="43.124463340983056" lon="6.287473335774378">
    <ele>21.400000000000002</ele>
   </trkpt>
   <trkpt lat="43.12438" lon="6.288410000000001">
    <ele>23.21</ele>
   </trkpt>
   <trkpt lat="43.124300000000005" lon="6.28866">
    <ele>23.21</ele>
   </trkpt>
   <trkpt lat="43.12418" lon="6.2889100000000004">
    <ele>23.41</ele>
   </trkpt>
   <trkpt lat="43.12386" lon="6.289350000000001">
    <ele>24.05</ele>
   </trkpt>
   <trkpt lat="43.12328" lon="6.290100000000001">
    <ele>23.85</ele>
   </trkpt>
   <trkpt lat="43.12306" lon="6.29063">
    <ele>24.16</ele>
   </trkpt>
   <trkpt lat="43.12286" lon="6.291220000000001">
    <ele>24.35</ele>
   </trkpt>
   <trkpt lat="43.12283" lon="6.29157">
    <ele>24.0</ele>
   </trkpt>
   <trkpt lat="43.1228150017883" lon="6.292209999947663">
    <ele>21.560000000000002</ele>
   </trkpt>
   <trkpt lat="43.122800000000005" lon="6.2928500000000005">
    <ele>19.89</ele>
   </trkpt>
   <trkpt lat="43.12277" lon="6.292980000000001">
    <ele>19.020000000000003</ele>
   </trkpt>
   <trkpt lat="43.12267000000001" lon="6.293190000000001">
    <ele>19.020000000000003</ele>
   </trkpt>
   <trkpt lat="43.122550000000004" lon="6.29337">
    <ele>17.57</ele>
   </trkpt>
   <trkpt lat="43.12181" lon="6.2940000000000005">
    <ele>14.49</ele>
   </trkpt>
   <trkpt lat="43.121400000893544" lon="6.294470003227853">
    <ele>13.18</ele>
   </trkpt>
   <trkpt lat="43.120990000000006" lon="6.29494">
    <ele>13.06</ele>
   </trkpt>
   <trkpt lat="43.12073" lon="6.295400000000001">
    <ele>14.370000000000001</ele>
   </trkpt>
   <trkpt lat="43.120450000000005" lon="6.296130000000001">
    <ele>15.82</ele>
   </trkpt>
   <trkpt lat="43.12015" lon="6.296760000000001">
    <ele>16.32</ele>
   </trkpt>
   <trkpt lat="43.12006" lon="6.29689">
    <ele>16.3</ele>
   </trkpt>
   <trkpt lat="43.11988" lon="6.29699">
    <ele>16.09</ele>
   </trkpt>
   <trkpt lat="43.11926500032851" lon="6.297280002932623">
    <ele>16.060000000000002</ele>
   </trkpt>
   <trkpt lat="43.11865" lon="6.29757">
    <ele>16.26</ele>
   </trkpt>
   <trkpt lat="43.11853000000001" lon="6.29767">
    <ele>16.400000000000002</ele>
   </trkpt>
   <trkpt lat="43.118480000000005" lon="6.297750000000001">
    <ele>16.400000000000002</ele>
   </trkpt>
   <trkpt lat="43.118410000000004" lon="6.297930000000001">
    <ele>16.360000000000003</ele>
   </trkpt>
   <trkpt lat="43.1180450484552" lon="6.299042059696988">
    <ele>17.0</ele>
   </trkpt>
   <trkpt lat="43.11768008614175" lon="6.300154106128463">
    <ele>19.990000000000002</ele>
   </trkpt>
   <trkpt lat="43.11731511305995" lon="6.301266139294363">
    <ele>22.650000000000002</ele>
   </trkpt>
   <trkpt lat="43.116950129210046" lon="6.302378159194623">
    <ele>20.450000000000003</ele>
   </trkpt>
   <trkpt lat="43.11658513459229" lon="6.303490165829181">
    <ele>20.42</ele>
   </trkpt>
   <trkpt lat="43.11622012920699" lon="6.304602159197971">
    <ele>21.62</ele>
   </trkpt>
   <trkpt lat="43.11585511305437" lon="6.305714139300931">
    <ele>23.919999999999998</ele>
   </trkpt>
   <trkpt lat="43.11549008613471" lon="6.306826106137998">
    <ele>24.71</ele>
   </trkpt>
   <trkpt lat="43.115125048448284" lon="6.307938059709107">
    <ele>24.55</ele>
   </trkpt>
   <trkpt lat="43.114760000000004" lon="6.309050000000001">
    <ele>24.900000000000002</ele>
   </trkpt>
   <trkpt lat="43.114720000000005" lon="6.309220000000001">
    <ele>25.51</ele>
   </trkpt>
   <trkpt lat="43.114850000000004" lon="6.309360000000001">
    <ele>26.17</ele>
   </trkpt>
   <trkpt lat="43.11506000000001" lon="6.309520000000001">
    <ele>27.020000000000003</ele>
   </trkpt>
   <trkpt lat="43.11524" lon="6.3098">
    <ele>29.620000000000005</ele>
   </trkpt>
   <trkpt lat="43.11534" lon="6.310180000000001">
    <ele>30.69</ele>
   </trkpt>
   <trkpt lat="43.11534" lon="6.310320000000001">
    <ele>30.7</ele>
   </trkpt>
   <trkpt lat="43.11524" lon="6.31064">
    <ele>28.220000000000002</ele>
   </trkpt>
   <trkpt lat="43.115080000000006" lon="6.310810000000001">
    <ele>27.070000000000004</ele>
   </trkpt>
   <trkpt lat="43.114850000000004" lon="6.31097">
    <ele>25.59</ele>
   </trkpt>
   <trkpt lat="43.11441000000001" lon="6.311400000000001">
    <ele>21.7</ele>
   </trkpt>
   <trkpt lat="43.11401500273196" lon="6.312190005069632">
    <ele>14.360000000000001</ele>
   </trkpt>
   <trkpt lat="43.113620000000004" lon="6.3129800000000005">
    <ele>9.9</ele>
   </trkpt>
   <trkpt lat="43.11321500928076" lon="6.313822516706406">
    <ele>10.100000000000001</ele>
   </trkpt>
   <trkpt lat="43.11281001238055" lon="6.3146650222619725">
    <ele>12.180000000000001</ele>
   </trkpt>
   <trkpt lat="43.11240500929955" lon="6.315507516666835">
    <ele>12.48</ele>
   </trkpt>
   <trkpt lat="43.112" lon="6.316350000000001">
    <ele>12.39</ele>
   </trkpt>
   <trkpt lat="43.11197000000001" lon="6.316440000000001">
    <ele>12.450000000000001</ele>
   </trkpt>
   <trkpt lat="43.11197000000001" lon="6.31643">
    <ele>12.450000000000001</ele>
   </trkpt>
   <trkpt lat="43.11204" lon="6.31674">
    <ele>12.72</ele>
   </trkpt>
   <trkpt lat="43.112140000000004" lon="6.316940000000001">
    <ele>13.070000000000002</ele>
   </trkpt>
   <trkpt lat="43.11229" lon="6.317030000000001">
    <ele>13.47</ele>
   </trkpt>
   <trkpt lat="43.112500000000004" lon="6.31709">
    <ele>13.83</ele>
   </trkpt>
   <trkpt lat="43.11283" lon="6.317080000000001">
    <ele>15.080000000000002</ele>
   </trkpt>
   <trkpt lat="43.113310000000006" lon="6.317030000000001">
    <ele>17.060000000000002</ele>
   </trkpt>
   <trkpt lat="43.113510000000005" lon="6.317080000000001">
    <ele>17.550000000000004</ele>
   </trkpt>
   <trkpt lat="43.11375" lon="6.317480000000001">
    <ele>18.680000000000003</ele>
   </trkpt>
   <trkpt lat="43.114030002851486" lon="6.318289996279231">
    <ele>20.610000000000003</ele>
   </trkpt>
   <trkpt lat="43.11431" lon="6.319100000000001">
    <ele>22.660000000000004</ele>
   </trkpt>
   <trkpt lat="43.114540000000005" lon="6.319470000000001">
    <ele>23.57</ele>
   </trkpt>
   <trkpt lat="43.11473" lon="6.3197">
    <ele>23.73</ele>
   </trkpt>
   <trkpt lat="43.11520000075469" lon="6.32005999738093">
    <ele>24.37</ele>
   </trkpt>
   <trkpt lat="43.11567" lon="6.32042">
    <ele>25.310000000000002</ele>
   </trkpt>
   <trkpt lat="43.115770000000005" lon="6.32068">
    <ele>26.060000000000002</ele>
   </trkpt>
   <trkpt lat="43.11616" lon="6.32106">
    <ele>27.880000000000003</ele>
   </trkpt>
   <trkpt lat="43.116530000000004" lon="6.321390000000001">
    <ele>30.720000000000002</ele>
   </trkpt>
   <trkpt lat="43.11683" lon="6.321580000000001">
    <ele>33.74</ele>
   </trkpt>
   <trkpt lat="43.117020000000004" lon="6.32174">
    <ele>35.300000000000004</ele>
   </trkpt>
   <trkpt lat="43.11719" lon="6.32199">
    <ele>37.11000000000001</ele>
   </trkpt>
   <trkpt lat="43.11757" lon="6.322380000000001">
    <ele>39.17</ele>
   </trkpt>
   <trkpt lat="43.11797000000001" lon="6.322620000000001">
    <ele>40.28</ele>
   </trkpt>
   <trkpt lat="43.11825" lon="6.32286">
    <ele>40.85</ele>
   </trkpt>
   <trkpt lat="43.118500000000004" lon="6.323130000000001">
    <ele>42.7</ele>
   </trkpt>
   <trkpt lat="43.11889" lon="6.3234">
    <ele>44.620000000000005</ele>
   </trkpt>
   <trkpt lat="43.119440000000004" lon="6.323840000000001">
    <ele>49.730000000000004</ele>
   </trkpt>
   <trkpt lat="43.11981" lon="6.324190000000001">
    <ele>52.88</ele>
   </trkpt>
   <trkpt lat="43.120200000000004" lon="6.324630000000001">
    <ele>55.24</ele>
   </trkpt>
   <trkpt lat="43.12032000000001" lon="6.324820000000001">
    <ele>58.190000000000005</ele>
   </trkpt>
   <trkpt lat="43.120470000000005" lon="6.32526">
    <ele>59.9</ele>
   </trkpt>
   <trkpt lat="43.120560000000005" lon="6.325430000000001">
    <ele>61.32000000000001</ele>
   </trkpt>
   <trkpt lat="43.121055001675515" lon="6.326039995133051">
    <ele>66.46000000000001</ele>
   </trkpt>
   <trkpt lat="43.121550000000006" lon="6.326650000000001">
    <ele>71.04</ele>
   </trkpt>
   <trkpt lat="43.121700000000004" lon="6.32685">
    <ele>71.08</ele>
   </trkpt>
   <trkpt lat="43.12209" lon="6.32753">
    <ele>67.46000000000001</ele>
   </trkpt>
   <trkpt lat="43.122150000000005" lon="6.32767">
    <ele>66.35000000000001</ele>
   </trkpt>
   <trkpt lat="43.12216" lon="6.327800000000001">
    <ele>65.77000000000001</ele>
   </trkpt>
   <trkpt lat="43.122130000000006" lon="6.32795">
    <ele>65.77000000000001</ele>
   </trkpt>
   <trkpt lat="43.12187" lon="6.328360000000001">
    <ele>62.02</ele>
   </trkpt>
   <trkpt lat="43.12181" lon="6.32849">
    <ele>60.63</ele>
   </trkpt>
   <trkpt lat="43.12182000000001" lon="6.328710000000001">
    <ele>60.72</ele>
   </trkpt>
   <trkpt lat="43.12189" lon="6.32894">
    <ele>57.760000000000005</ele>
   </trkpt>
   <trkpt lat="43.12205" lon="6.329400000000001">
    <ele>56.57</ele>
   </trkpt>
   <trkpt lat="43.12218" lon="6.330050000000001">
    <ele>51.81</ele>
   </trkpt>
   <trkpt lat="43.12229000000001" lon="6.3302000000000005">
    <ele>50.36</ele>
   </trkpt>
   <trkpt lat="43.123000000000005" lon="6.330900000000001">
    <ele>45.540000000000006</ele>
   </trkpt>
   <trkpt lat="43.123490000000004" lon="6.3313500000000005">
    <ele>43.82000000000001</ele>
   </trkpt>
   <trkpt lat="43.123870000000004" lon="6.3316300000000005">
    <ele>42.28</ele>
   </trkpt>
   <trkpt lat="43.124100000000006" lon="6.331770000000001">
    <ele>41.99000000000001</ele>
   </trkpt>
   <trkpt lat="43.124700000000004" lon="6.332000000000001">
    <ele>40.300000000000004</ele>
   </trkpt>
   <trkpt lat="43.12541" lon="6.33241">
    <ele>37.470000000000006</ele>
   </trkpt>
   <trkpt lat="43.12592000056025" lon="6.332734997354382">
    <ele>34.61</ele>
   </trkpt>
   <trkpt lat="43.126430000000006" lon="6.333060000000001">
    <ele>32.870000000000005</ele>
   </trkpt>
   <trkpt lat="43.127100000000006" lon="6.333450000000001">
    <ele>31.12</ele>
   </trkpt>
   <trkpt lat="43.127370000000006" lon="6.33363">
    <ele>31.360000000000007</ele>
   </trkpt>
   <trkpt lat="43.127770000000005" lon="6.33403">
    <ele>32.510000000000005</ele>
   </trkpt>
   <trkpt lat="43.12812" lon="6.33471">
    <ele>32.120000000000005</ele>
   </trkpt>
   <trkpt lat="43.128310000000006" lon="6.334980000000001">
    <ele>31.48</ele>
   </trkpt>
   <trkpt lat="43.12845" lon="6.33506">
    <ele>31.48</ele>
   </trkpt>
   <trkpt lat="43.12895" lon="6.335260000000001">
    <ele>30.580000000000002</ele>
   </trkpt>
   <trkpt lat="43.129760000000005" lon="6.335660000000001">
    <ele>28.360000000000003</ele>
   </trkpt>
   <trkpt lat="43.130140000000004" lon="6.335940000000001">
    <ele>28.05</ele>
   </trkpt>
   <trkpt lat="43.13073000000001" lon="6.3365100000000005">
    <ele>26.42</ele>
   </trkpt>
   <trkpt lat="43.130860000000006" lon="6.336570000000001">
    <ele>26.42</ele>
   </trkpt>
   <trkpt lat="43.131190000000004" lon="6.33661">
    <ele>25.310000000000002</ele>
   </trkpt>
   <trkpt lat="43.13163" lon="6.336650000000001">
    <ele>21.86</ele>
   </trkpt>
   <trkpt lat="43.131840000000004" lon="6.33675">
    <ele>20.17</ele>
   </trkpt>
   <trkpt lat="43.132360000000006" lon="6.3371900000000005">
    <ele>16.86</ele>
   </trkpt>
   <trkpt lat="43.13307500122912" lon="6.33770999395821">
    <ele>15.73</ele>
   </trkpt>
   <trkpt lat="43.133790000000005" lon="6.33823">
    <ele>15.370000000000001</ele>
   </trkpt>
   <trkpt lat="43.13458000000001" lon="6.33875">
    <ele>14.790000000000001</ele>
   </trkpt>
   <trkpt lat="43.13487000000001" lon="6.33882">
    <ele>14.870000000000001</ele>
   </trkpt>
   <trkpt lat="43.13537" lon="6.33889">
    <ele>15.240000000000002</ele>
   </trkpt>
   <trkpt lat="43.13555" lon="6.33992">
    <ele>14.980000000000002</ele>
   </trkpt>
   <trkpt lat="43.13564" lon="6.340820000000001">
    <ele>14.67</ele>
   </trkpt>
   <trkpt lat="43.13570000000001" lon="6.3417900000000005">
    <ele>13.81</ele>
   </trkpt>
   <trkpt lat="43.135690000000004" lon="6.34266">
    <ele>13.21</ele>
   </trkpt>
   <trkpt lat="43.135920000000006" lon="6.34323">
    <ele>12.92</ele>
   </trkpt>
   <trkpt lat="43.13597" lon="6.34339">
    <ele>12.860000000000001</ele>
   </trkpt>
   <trkpt lat="43.13599000000001" lon="6.3436200000000005">
    <ele>12.74</ele>
   </trkpt>
   <trkpt lat="43.13599000000001" lon="6.34421">
    <ele>12.610000000000001</ele>
   </trkpt>
   <trkpt lat="43.13597" lon="6.344640000000001">
    <ele>12.450000000000001</ele>
   </trkpt>
   <trkpt lat="43.13599000000001" lon="6.34546">
    <ele>12.15</ele>
   </trkpt>
   <trkpt lat="43.136030000000005" lon="6.345610000000001">
    <ele>12.15</ele>
   </trkpt>
   <trkpt lat="43.136120000000005" lon="6.34576">
    <ele>12.13</ele>
   </trkpt>
   <trkpt lat="43.13646000000001" lon="6.346190000000001">
    <ele>12.22</ele>
   </trkpt>
   <trkpt lat="43.136410000000005" lon="6.346260000000001">
    <ele>12.010000000000002</ele>
   </trkpt>
   <trkpt lat="43.1364" lon="6.346360000000001">
    <ele>12.010000000000002</ele>
   </trkpt>
   <trkpt lat="43.13642" lon="6.3464100000000006">
    <ele>12.010000000000002</ele>
   </trkpt>
   <trkpt lat="43.136480000000006" lon="6.34646">
    <ele>11.97</ele>
   </trkpt>
   <trkpt lat="43.13651" lon="6.34663">
    <ele>11.8</ele>
   </trkpt>
   <trkpt lat="43.13638" lon="6.3478">
    <ele>11.01</ele>
   </trkpt>
   <trkpt lat="43.136280000000006" lon="6.348160000000001">
    <ele>10.85</ele>
   </trkpt>
   <trkpt lat="43.136120000000005" lon="6.348540000000001">
    <ele>10.77</ele>
   </trkpt>
   <trkpt lat="43.13586" lon="6.349060000000001">
    <ele>10.72</ele>
   </trkpt>
   <trkpt lat="43.135540000000006" lon="6.34949">
    <ele>10.93</ele>
   </trkpt>
   <trkpt lat="43.13535" lon="6.349710000000001">
    <ele>10.780000000000001</ele>
   </trkpt>
   <trkpt lat="43.135290000000005" lon="6.349850000000001">
    <ele>10.59</ele>
   </trkpt>
   <trkpt lat="43.13524" lon="6.35008">
    <ele>10.59</ele>
   </trkpt>
   <trkpt lat="43.135180000000005" lon="6.3512900000000005">
    <ele>10.690000000000001</ele>
   </trkpt>
   <trkpt lat="43.13468" lon="6.35118">
    <ele>10.110000000000001</ele>
   </trkpt>
   <trkpt lat="43.1338" lon="6.3510800000000005">
    <ele>9.770000000000001</ele>
   </trkpt>
   <trkpt lat="43.13308000000001" lon="6.350980000000001">
    <ele>9.760000000000002</ele>
   </trkpt>
   <trkpt lat="43.132940000000005" lon="6.35095">
    <ele>9.63</ele>
   </trkpt>
   <trkpt lat="43.13270000000001" lon="6.35083">
    <ele>9.600000000000001</ele>
   </trkpt>
   <trkpt lat="43.132120000687614" lon="6.350429996200367">
    <ele>9.91</ele>
   </trkpt>
   <trkpt lat="43.13154" lon="6.35003">
    <ele>11.36</ele>
   </trkpt>
   <trkpt lat="43.131460000000004" lon="6.3499300000000005">
    <ele>11.430000000000001</ele>
   </trkpt>
   <trkpt lat="43.131170000000004" lon="6.349290000000001">
    <ele>12.450000000000001</ele>
   </trkpt>
   <trkpt lat="43.131" lon="6.34905">
    <ele>13.06</ele>
   </trkpt>
   <trkpt lat="43.13082000000001" lon="6.348940000000001">
    <ele>14.24</ele>
   </trkpt>
   <trkpt lat="43.13073000000001" lon="6.348920000000001">
    <ele>14.57</ele>
   </trkpt>
   <trkpt lat="43.13055000000001" lon="6.348910000000001">
    <ele>15.61</ele>
   </trkpt>
   <trkpt lat="43.130390000000006" lon="6.348940000000001">
    <ele>15.61</ele>
   </trkpt>
   <trkpt lat="43.13011" lon="6.3490400000000005">
    <ele>16.490000000000002</ele>
   </trkpt>
   <trkpt lat="43.12961000000001" lon="6.34928">
    <ele>18.29</ele>
   </trkpt>
   <trkpt lat="43.12924" lon="6.349500000000001">
    <ele>19.46</ele>
   </trkpt>
   <trkpt lat="43.12881500052648" lon="6.349845002390475">
    <ele>21.550000000000004</ele>
   </trkpt>
   <trkpt lat="43.12839" lon="6.3501900000000004">
    <ele>22.94</ele>
   </trkpt>
   <trkpt lat="43.12789" lon="6.350530000000001">
    <ele>23.919999999999998</ele>
   </trkpt>
   <trkpt lat="43.12765" lon="6.350630000000001">
    <ele>23.75</ele>
   </trkpt>
   <trkpt lat="43.12738" lon="6.350700000000001">
    <ele>23.46</ele>
   </trkpt>
   <trkpt lat="43.126830000000005" lon="6.35078">
    <ele>22.330000000000002</ele>
   </trkpt>
   <trkpt lat="43.12668" lon="6.350770000000001">
    <ele>22.13</ele>
   </trkpt>
   <trkpt lat="43.12604" lon="6.350600000000001">
    <ele>21.61</ele>
   </trkpt>
   <trkpt lat="43.12516" lon="6.350530000000001">
    <ele>21.23</ele>
   </trkpt>
   <trkpt lat="43.12487" lon="6.3505400000000005">
    <ele>21.220000000000002</ele>
   </trkpt>
   <trkpt lat="43.12458" lon="6.350700000000001">
    <ele>21.34</ele>
   </trkpt>
   <trkpt lat="43.12415" lon="6.3509">
    <ele>20.93</ele>
   </trkpt>
   <trkpt lat="43.12377" lon="6.3510100000000005">
    <ele>20.55</ele>
   </trkpt>
   <trkpt lat="43.12379000000001" lon="6.351170000000001">
    <ele>20.26</ele>
   </trkpt>
   <trkpt lat="43.12364500158655" lon="6.35178000158702">
    <ele>18.230000000000004</ele>
   </trkpt>
   <trkpt lat="43.12350000000001" lon="6.352390000000001">
    <ele>16.630000000000003</ele>
   </trkpt>
   <trkpt lat="43.12350000000001" lon="6.352600000000001">
    <ele>16.19</ele>
   </trkpt>
   <trkpt lat="43.12332500227248" lon="6.3533300022873735">
    <ele>15.360000000000001</ele>
   </trkpt>
   <trkpt lat="43.12315" lon="6.3540600000000005">
    <ele>13.47</ele>
   </trkpt>
   <trkpt lat="43.12304" lon="6.354260000000001">
    <ele>13.47</ele>
   </trkpt>
   <trkpt lat="43.122845004203256" lon="6.355245003245941">
    <ele>10.820000000000002</ele>
   </trkpt>
   <trkpt lat="43.12265" lon="6.356230000000001">
    <ele>10.14</ele>
   </trkpt>
   <trkpt lat="43.122620000000005" lon="6.356280000000001">
    <ele>10.13</ele>
   </trkpt>
   <trkpt lat="43.122620000000005" lon="6.356350000000001">
    <ele>10.05</ele>
   </trkpt>
   <trkpt lat="43.12266" lon="6.35639">
    <ele>10.05</ele>
   </trkpt>
   <trkpt lat="43.12242500547533" lon="6.357510004236651">
    <ele>8.17</ele>
   </trkpt>
   <trkpt lat="43.12219" lon="6.358630000000001">
    <ele>7.8100000000000005</ele>
   </trkpt>
   <trkpt lat="43.122130000000006" lon="6.358630000000001">
    <ele>7.8100000000000005</ele>
   </trkpt>
   <trkpt lat="43.122080000000004" lon="6.3586800000000006">
    <ele>7.800000000000001</ele>
   </trkpt>
   <trkpt lat="43.122060000000005" lon="6.358750000000001">
    <ele>7.800000000000001</ele>
   </trkpt>
   <trkpt lat="43.12207" lon="6.35883">
    <ele>7.800000000000001</ele>
   </trkpt>
   <trkpt lat="43.122110000000006" lon="6.358890000000001">
    <ele>7.660000000000001</ele>
   </trkpt>
   <trkpt lat="43.122170000000004" lon="6.3589">
    <ele>7.660000000000001</ele>
   </trkpt>
   <trkpt lat="43.122220000000006" lon="6.3588700000000005">
    <ele>7.660000000000001</ele>
   </trkpt>
   <trkpt lat="43.122260000000004" lon="6.3588000000000005">
    <ele>7.59</ele>
   </trkpt>
   <trkpt lat="43.12283000018039" lon="6.359064997472719">
    <ele>6.840000000000001</ele>
   </trkpt>
   <trkpt lat="43.123400000000004" lon="6.359330000000001">
    <ele>6.430000000000001</ele>
   </trkpt>
   <trkpt lat="43.123760000000004" lon="6.36">
    <ele>6.44</ele>
   </trkpt>
   <trkpt lat="43.123850000000004" lon="6.360110000000001">
    <ele>6.5</ele>
   </trkpt>
   <trkpt lat="43.12368" lon="6.360970000000001">
    <ele>5.450000000000001</ele>
   </trkpt>
   <trkpt lat="43.12371" lon="6.361110000000001">
    <ele>5.4</ele>
   </trkpt>
  </trkseg>
 </trk>
</gpx>
