<?xml version="1.0" encoding="UTF-8"?>
<gpx creator="StravaGPX" version="1.1" xmlns="http://www.topografix.com/GPX/1/1" xmlns:xsi="http://www.w3.org/2001/XMLSchema-instance" xsi:schemaLocation="http://www.topografix.com/GPX/1/1 http://www.topografix.com/GPX/1/1/gpx.xsd">
 <metadata>
  <name>T24 BORMES LES MIMOSAS - CAP</name>
  <author>
   <name>T24  XTREM TRIATHLON</name>
   <link href="https://www.strava.com/athletes/118372609"/>
  </author>
  <copyright author="OpenStreetMap contributors">
   <year>2020</year>
   <license>https://www.openstreetmap.org/copyright</license>
  </copyright>
  <link href="https://www.strava.com/routes/3509212010134048898"/>
 </metadata>
 <trk>
  <name>T24 BORMES LES MIMOSAS - CAP</name>
  <link href="https://www.strava.com/routes/3509212010134048898"/>
  <type>running</type>
  <trkseg>
   <trkpt lat="43.1233" lon="6.3613800000000005">
    <ele>4.48</ele>
   </trkpt>
   <trkpt lat="43.123470000000005" lon="6.361280000000001">
    <ele>5.140000000000001</ele>
   </trkpt>
   <trkpt lat="43.12359" lon="6.36141">
    <ele>5.55</ele>
   </trkpt>
   <trkpt lat="43.123810000000006" lon="6.3613800000000005">
    <ele>6.6000000000000005</ele>
   </trkpt>
   <trkpt lat="43.12398" lon="6.361680000000001">
    <ele>7.69</ele>
   </trkpt>
   <trkpt lat="43.123940000000005" lon="6.361630000000001">
    <ele>7.33</ele>
   </trkpt>
   <trkpt lat="43.12417000000001" lon="6.361650000000001">
    <ele>8.780000000000001</ele>
   </trkpt>
   <trkpt lat="43.12422" lon="6.36178">
    <ele>8.6</ele>
   </trkpt>
   <trkpt lat="43.12491000000001" lon="6.36202">
    <ele>13.850000000000001</ele>
   </trkpt>
   <trkpt lat="43.12484500329101" lon="6.362890000984832">
    <ele>13.160000000000002</ele>
   </trkpt>
   <trkpt lat="43.12478" lon="6.36376">
    <ele>6.280000000000001</ele>
   </trkpt>
   <trkpt lat="43.124280000000006" lon="6.3642">
    <ele>2.8100000000000005</ele>
   </trkpt>
   <trkpt lat="43.12427" lon="6.3641700000000005">
    <ele>13.770000000000001</ele>
   </trkpt>
   <trkpt lat="43.1242" lon="6.36404">
    <ele>14.600000000000001</ele>
   </trkpt>
   <trkpt lat="43.12416" lon="6.36378">
    <ele>14.040000000000001</ele>
   </trkpt>
   <trkpt lat="43.12406" lon="6.363480000000001">
    <ele>11.99</ele>
   </trkpt>
   <trkpt lat="43.12407" lon="6.3635">
    <ele>12.110000000000001</ele>
   </trkpt>
   <trkpt lat="43.124" lon="6.36326">
    <ele>10.910000000000002</ele>
   </trkpt>
   <trkpt lat="43.124" lon="6.363130000000001">
    <ele>9.23</ele>
   </trkpt>
   <trkpt lat="43.12406" lon="6.362830000000001">
    <ele>8.049999999999999</ele>
   </trkpt>
   <trkpt lat="43.12407" lon="6.362830000000001">
    <ele>8.049999999999999</ele>
   </trkpt>
   <trkpt lat="43.124210000000005" lon="6.3624600000000004">
    <ele>7.3500000000000005</ele>
   </trkpt>
   <trkpt lat="43.124230000000004" lon="6.362220000000001">
    <ele>6.78</ele>
   </trkpt>
   <trkpt lat="43.124190000000006" lon="6.3619200000000005">
    <ele>6.140000000000001</ele>
   </trkpt>
   <trkpt lat="43.123940000000005" lon="6.362030000000001">
    <ele>5.19</ele>
   </trkpt>
   <trkpt lat="43.124" lon="6.362150000000001">
    <ele>5.03</ele>
   </trkpt>
   <trkpt lat="43.12364" lon="6.362410000000001">
    <ele>4.6000000000000005</ele>
   </trkpt>
   <trkpt lat="43.123630000000006" lon="6.36242">
    <ele>4.6000000000000005</ele>
   </trkpt>
   <trkpt lat="43.12359" lon="6.3624600000000004">
    <ele>4.6000000000000005</ele>
   </trkpt>
   <trkpt lat="43.123380000000004" lon="6.362410000000001">
    <ele>4.66</ele>
   </trkpt>
   <trkpt lat="43.123310000000004" lon="6.362760000000001">
    <ele>4.78</ele>
   </trkpt>
   <trkpt lat="43.12295" lon="6.36263">
    <ele>4.7</ele>
   </trkpt>
   <trkpt lat="43.122640000000004" lon="6.36289">
    <ele>4.72</ele>
   </trkpt>
   <trkpt lat="43.122600000000006" lon="6.36312">
    <ele>4.7</ele>
   </trkpt>
   <trkpt lat="43.12267000000001" lon="6.36315">
    <ele>4.7</ele>
   </trkpt>
   <trkpt lat="43.122640000000004" lon="6.3632800000000005">
    <ele>4.7</ele>
   </trkpt>
   <trkpt lat="43.12265" lon="6.36319">
    <ele>4.7</ele>
   </trkpt>
   <trkpt lat="43.12261" lon="6.363440000000001">
    <ele>4.68</ele>
   </trkpt>
   <trkpt lat="43.122260000000004" lon="6.363320000000001">
    <ele>4.430000000000001</ele>
   </trkpt>
   <trkpt lat="43.12205" lon="6.362850000000001">
    <ele>4.3</ele>
   </trkpt>
   <trkpt lat="43.12153500077165" lon="6.36326500347573">
    <ele>4.3500000000000005</ele>
   </trkpt>
   <trkpt lat="43.12102" lon="6.3636800000000004">
    <ele>4.5200000000000005</ele>
   </trkpt>
   <trkpt lat="43.12098" lon="6.36371">
    <ele>2.2600000000000002</ele>
   </trkpt>
   <trkpt lat="43.120885002675585" lon="6.364495001280249">
    <ele>4.08</ele>
   </trkpt>
   <trkpt lat="43.12079000000001" lon="6.36528">
    <ele>5.51</ele>
   </trkpt>
   <trkpt lat="43.12135333430103" lon="6.3656099939343775">
    <ele>3.91</ele>
   </trkpt>
   <trkpt lat="43.12191666765377" lon="6.365939993945666">
    <ele>2.23</ele>
   </trkpt>
   <trkpt lat="43.12248" lon="6.36627">
    <ele>0.22</ele>
   </trkpt>
   <trkpt lat="43.122460000000004" lon="6.36627">
    <ele>4.5</ele>
   </trkpt>
   <trkpt lat="43.122905000091805" lon="6.36644999867079">
    <ele>4.5</ele>
   </trkpt>
   <trkpt lat="43.12335" lon="6.366630000000001">
    <ele>4.540000000000001</ele>
   </trkpt>
   <trkpt lat="43.123610000000006" lon="6.366720000000001">
    <ele>4.53</ele>
   </trkpt>
   <trkpt lat="43.12435000000001" lon="6.3669">
    <ele>4.410000000000001</ele>
   </trkpt>
   <trkpt lat="43.12489" lon="6.366860000000001">
    <ele>4.65</ele>
   </trkpt>
   <trkpt lat="43.12435000000001" lon="6.3669">
    <ele>4.410000000000001</ele>
   </trkpt>
   <trkpt lat="43.123610000000006" lon="6.366720000000001">
    <ele>4.53</ele>
   </trkpt>
   <trkpt lat="43.12335" lon="6.366630000000001">
    <ele>4.540000000000001</ele>
   </trkpt>
   <trkpt lat="43.122835000241956" lon="6.366419998252597">
    <ele>4.5</ele>
   </trkpt>
   <trkpt lat="43.12232" lon="6.366210000000001">
    <ele>4.5</ele>
   </trkpt>
   <trkpt lat="43.12153000000001" lon="6.36573">
    <ele>4.55</ele>
   </trkpt>
   <trkpt lat="43.121550000000006" lon="6.365740000000001">
    <ele>3.4400000000000004</ele>
   </trkpt>
   <trkpt lat="43.12079000000001" lon="6.365270000000001">
    <ele>5.51</ele>
   </trkpt>
   <trkpt lat="43.120895002619996" lon="6.364490001553627">
    <ele>3.6500000000000004</ele>
   </trkpt>
   <trkpt lat="43.121" lon="6.36371">
    <ele>2.2800000000000002</ele>
   </trkpt>
   <trkpt lat="43.121385000274856" lon="6.363385002201324">
    <ele>1.6300000000000001</ele>
   </trkpt>
   <trkpt lat="43.121770000000005" lon="6.363060000000001">
    <ele>0.9800000000000002</ele>
   </trkpt>
   <trkpt lat="43.12232" lon="6.36261">
    <ele>1.08</ele>
   </trkpt>
   <trkpt lat="43.12200000000001" lon="6.361890000000001">
    <ele>0.15000000000000002</ele>
   </trkpt>
   <trkpt lat="43.121990000000004" lon="6.361860000000001">
    <ele>4.45</ele>
   </trkpt>
   <trkpt lat="43.12182000000001" lon="6.361510000000001">
    <ele>4.53</ele>
   </trkpt>
   <trkpt lat="43.12173000000001" lon="6.36129">
    <ele>4.53</ele>
   </trkpt>
   <trkpt lat="43.12174" lon="6.361250000000001">
    <ele>4.53</ele>
   </trkpt>
   <trkpt lat="43.121505001327854" lon="6.36070999805967">
    <ele>4.410000000000001</ele>
   </trkpt>
   <trkpt lat="43.12127" lon="6.36017">
    <ele>4.45</ele>
   </trkpt>
   <trkpt lat="43.12091" lon="6.35991">
    <ele>4.53</ele>
   </trkpt>
   <trkpt lat="43.12089" lon="6.359890000000001">
    <ele>4.53</ele>
   </trkpt>
   <trkpt lat="43.12084" lon="6.35986">
    <ele>4.53</ele>
   </trkpt>
   <trkpt lat="43.12088000000001" lon="6.359710000000001">
    <ele>4.540000000000001</ele>
   </trkpt>
   <trkpt lat="43.120960000000004" lon="6.359750000000001">
    <ele>4.57</ele>
   </trkpt>
   <trkpt lat="43.12098" lon="6.35967">
    <ele>4.880000000000001</ele>
   </trkpt>
   <trkpt lat="43.12104" lon="6.359610000000001">
    <ele>4.880000000000001</ele>
   </trkpt>
   <trkpt lat="43.121010000000005" lon="6.359380000000001">
    <ele>5.430000000000001</ele>
   </trkpt>
   <trkpt lat="43.121140000000004" lon="6.358980000000001">
    <ele>6.65</ele>
   </trkpt>
   <trkpt lat="43.12116" lon="6.35883">
    <ele>7.260000000000001</ele>
   </trkpt>
   <trkpt lat="43.121190000000006" lon="6.35866">
    <ele>7.9</ele>
   </trkpt>
   <trkpt lat="43.1212" lon="6.3584000000000005">
    <ele>8.280000000000001</ele>
   </trkpt>
   <trkpt lat="43.1216" lon="6.3577">
    <ele>8.77</ele>
   </trkpt>
   <trkpt lat="43.12178" lon="6.35723">
    <ele>9.24</ele>
   </trkpt>
   <trkpt lat="43.121840000000006" lon="6.356990000000001">
    <ele>9.36</ele>
   </trkpt>
   <trkpt lat="43.12198" lon="6.355950000000001">
    <ele>10.83</ele>
   </trkpt>
   <trkpt lat="43.122040000000005" lon="6.3558">
    <ele>10.83</ele>
   </trkpt>
   <trkpt lat="43.1223" lon="6.356020000000001">
    <ele>10.58</ele>
   </trkpt>
   <trkpt lat="43.1223" lon="6.35601">
    <ele>10.58</ele>
   </trkpt>
   <trkpt lat="43.122620000000005" lon="6.356280000000001">
    <ele>10.41</ele>
   </trkpt>
   <trkpt lat="43.122620000000005" lon="6.356350000000001">
    <ele>10.41</ele>
   </trkpt>
   <trkpt lat="43.12266" lon="6.35639">
    <ele>10.41</ele>
   </trkpt>
   <trkpt lat="43.12242500547533" lon="6.357510004236651">
    <ele>9.260000000000002</ele>
   </trkpt>
   <trkpt lat="43.12219" lon="6.358630000000001">
    <ele>8.350000000000001</ele>
   </trkpt>
   <trkpt lat="43.122130000000006" lon="6.358630000000001">
    <ele>8.350000000000001</ele>
   </trkpt>
   <trkpt lat="43.122080000000004" lon="6.3586800000000006">
    <ele>8.26</ele>
   </trkpt>
   <trkpt lat="43.122060000000005" lon="6.358750000000001">
    <ele>8.26</ele>
   </trkpt>
   <trkpt lat="43.12207" lon="6.35883">
    <ele>8.26</ele>
   </trkpt>
   <trkpt lat="43.122110000000006" lon="6.358890000000001">
    <ele>8.26</ele>
   </trkpt>
   <trkpt lat="43.122170000000004" lon="6.3589">
    <ele>8.13</ele>
   </trkpt>
   <trkpt lat="43.122035002171295" lon="6.359610001690391">
    <ele>7.5</ele>
   </trkpt>
   <trkpt lat="43.121900000000004" lon="6.360320000000001">
    <ele>5.61</ele>
   </trkpt>
   <trkpt lat="43.121930000000006" lon="6.360410000000001">
    <ele>5.61</ele>
   </trkpt>
   <trkpt lat="43.1223" lon="6.360810000000001">
    <ele>5.220000000000001</ele>
   </trkpt>
   <trkpt lat="43.122310000000006" lon="6.360740000000001">
    <ele>5.73</ele>
   </trkpt>
   <trkpt lat="43.12236" lon="6.360760000000001">
    <ele>4.51</ele>
   </trkpt>
   <trkpt lat="43.12254" lon="6.360810000000001">
    <ele>4.6000000000000005</ele>
   </trkpt>
   <trkpt lat="43.12272" lon="6.36061">
    <ele>5.630000000000001</ele>
   </trkpt>
   <trkpt lat="43.122930000000004" lon="6.36054">
    <ele>5.7</ele>
   </trkpt>
   <trkpt lat="43.12303000000001" lon="6.3603700000000005">
    <ele>6.15</ele>
   </trkpt>
   <trkpt lat="43.12314000000001" lon="6.36035">
    <ele>6.12</ele>
   </trkpt>
   <trkpt lat="43.12341000000001" lon="6.36054">
    <ele>5.960000000000001</ele>
   </trkpt>
   <trkpt lat="43.12370000000001" lon="6.360200000000001">
    <ele>7.280000000000001</ele>
   </trkpt>
   <trkpt lat="43.1238" lon="6.3603000000000005">
    <ele>7.33</ele>
   </trkpt>
   <trkpt lat="43.12369" lon="6.36099">
    <ele>6.0</ele>
   </trkpt>
   <trkpt lat="43.123270000000005" lon="6.36136">
    <ele>4.36</ele>
   </trkpt>
  </trkseg>
 </trk>
</gpx>
